NORAD_CAT_ID,OBJECT_NAME,OBJECT_TYPE,EPOCH,MEAN_MOTION,ECCENTRICITY,INCLINATION,RA_OF_ASC_NODE,ARG_OF_PERICENTER,MEAN_ANOMALY,BSTAR,MEAN_MOTION_DOT,MEAN_MOTION_DDOT,TLE_LINE0,TLE_LINE1,TLE_LINE2,SEMIMAJOR_AXIS,PERIOD,APOGEE,PERIGEE,DECAYED
53594.0,STARLINK-4681,PAYLOAD,2024-04-05 20:55:49,15.08839247,0.000128,53.2152,159.166,82.8259,277.2879,1.841e-05,5e-08,0.0,0 STARLINK-4681,1 53594U 22104G   24096.87210035  .00000005  00000-0  18410-4 0  9995,2 53594  53.2152 159.1660 0001280  82.8259 277.2879 15.08839247 88824,6917.883,95.438,540.633,538.862,0.0
53594.0,STARLINK-4681,PAYLOAD,2024-04-06 04:52:45,15.08830768,0.0001347,53.2158,157.68,88.0455,272.0691,-5.8208e-05,-1.214e-05,0.0,0 STARLINK-4681,1 53594U 22104G   24097.20330589 -.00001214  00000-0 -58208-4 0  9994,2 53594  53.2158 157.6800 0001347  88.0455 272.0691 15.08830768 88878,6917.909,95.438,540.705,538.842,0.0
53594.0,STARLINK-4681,PAYLOAD,2024-04-06 11:14:18,15.08829851,0.0001513,53.2165,156.4918,98.8256,261.2908,2.0282e-05,3.5e-07,0.0,0 STARLINK-4681,1 53594U 22104G   24097.46827210  .00000035  00000-0  20282-4 0  9993,2 53594  53.2165 156.4918 0001513  98.8256 261.2908 15.08829851 90073,6917.911,95.438,540.823,538.73,0.0
53594.0,STARLINK-4681,PAYLOAD,2024-04-06 20:46:37,15.08835061,0.0001427,53.2168,154.7061,89.0652,271.0503,5.5881e-05,6.01e-06,0.0,0 STARLINK-4681,1 53594U 22104G   24097.86570940  .00000601  00000-0  55881-4 0  9994,2 53594  53.2168 154.7061 0001427  89.0652 271.0503 15.08835061 90139,6917.895,95.438,540.748,538.773,0.0
53594.0,STARLINK-4681,PAYLOAD,2024-04-07 12:40:28,15.08842588,0.0001677,53.2175,151.7334,105.6008,254.517,2.0937e-05,4.5e-07,0.0,0 STARLINK-4681,1 53594U 22104G   24098.52810712  .00000045  00000-0  20937-4 0  9998,2 53594  53.2175 151.7334 0001677 105.6008 254.5170 15.08842588 89073,6917.872,95.437,540.898,538.577,0.0
53594.0,STARLINK-4681,PAYLOAD,2024-04-07 20:37:24,15.08842392,0.0001453,53.2162,150.2446,87.8304,272.2855,5.1495e-06,-2.06e-06,0.0,0 STARLINK-4681,1 53594U 22104G   24098.85930758 -.00000206  00000-0  51495-5 0  9991,2 53594  53.2162 150.2446 0001453  87.8304 272.2855 15.08842392 90284,6917.873,95.437,540.743,538.733,0.0
53594.0,STARLINK-4681,PAYLOAD,2024-04-08 12:31:15,15.08844678,0.0001519,53.2159,147.2702,87.0272,273.0894,0.00016926,2.407e-05,0.0,0 STARLINK-4681,1 53594U 22104G   24099.52170592  .00002407  00000-0  16926-3 0  9990,2 53594  53.2159 147.2702 0001519  87.0272 273.0894 15.08844678 90382,6917.866,95.437,540.782,538.68,0.0
53594.0,STARLINK-4681,PAYLOAD,2024-04-08 20:28:11,15.08843326,0.0001516,53.2161,145.783,87.3582,272.7583,0.0001585,2.236e-05,0.0,0 STARLINK-4681,1 53594U 22104G   24099.85290696  .00002236  00000-0  15850-3 0  9999,2 53594  53.2161 145.7830 0001516  87.3582 272.7583 15.08843326 90430,6917.87,95.437,540.784,538.686,0.0
53594.0,STARLINK-4681,PAYLOAD,2024-04-09 02:49:43,15.0884389,0.0001537,53.2159,144.5933,88.0641,272.0527,0.00015602,2.196e-05,0.0,0 STARLINK-4681,1 53594U 22104G   24100.11786680  .00002196  00000-0  15602-3 0  9994,2 53594  53.2159 144.5933 0001537  88.0641 272.0527 15.08843890 89317,6917.868,95.437,540.797,538.67,0.0
53594.0,STARLINK-4681,PAYLOAD,2024-04-09 09:11:16,15.08845097,0.0001543,53.2146,143.4039,87.9002,272.2167,0.00017433,2.488e-05,0.0,0 STARLINK-4681,1 53594U 22104G   24100.38282678  .00002488  00000-0  17433-3 0  9999,2 53594  53.2146 143.4039 0001543  87.9002 272.2167 15.08845097 90511,6917.865,95.437,540.797,538.662,0.0
53594.0,STARLINK-4681,PAYLOAD,2024-04-09 20:18:58,15.08843743,0.0001484,53.2147,141.3222,87.681,272.4352,0.00010846,1.439e-05,0.0,0 STARLINK-4681,1 53594U 22104G   24100.84650675  .00001439  00000-0  10846-3 0  9992,2 53594  53.2147 141.3222 0001484  87.6810 272.4352 15.08843743 90582,6917.869,95.437,540.761,538.707,0.0
53594.0,STARLINK-4681,PAYLOAD,2024-04-10 09:02:03,15.08844394,0.0001492,53.2164,138.9434,87.1376,272.9787,8.2527e-05,1.026e-05,0.0,0 STARLINK-4681,1 53594U 22104G   24101.37642537  .00001026  00000-0  82527-4 0  9997,2 53594  53.2164 138.9434 0001492  87.1376 272.9787 15.08844394 89509,6917.867,95.437,540.764,538.7,0.0
53594.0,STARLINK-4681,PAYLOAD,2024-04-11 08:52:50,15.08839212,0.0001464,53.216,134.4828,88.1071,272.0089,1.9738e-05,2.6e-07,0.0,0 STARLINK-4681,1 53594U 22104G   24102.37002828  .00000026  00000-0  19738-4 0  9994,2 53594  53.2160 134.4828 0001464  88.1071 272.0089 15.08839212 89650,6917.883,95.438,540.761,538.735,0.0
53594.0,STARLINK-4681,PAYLOAD,2024-04-12 07:08:14,15.08839202,0.0001509,53.2165,130.3188,88.1507,271.9658,4.7717e-05,4.71e-06,0.0,0 STARLINK-4681,1 53594U 22104G   24103.29738833  .00000471  00000-0  47717-4 0  9990,2 53594  53.2165 130.3188 0001509  88.1507 271.9658 15.08839202 90957,6917.883,95.438,540.792,538.704,0.0
53594.0,STARLINK-4681,PAYLOAD,2024-04-13 05:23:38,15.08838609,0.000144,53.216,126.1565,87.9848,272.1309,8.1079e-05,1.003e-05,0.0,0 STARLINK-4681,1 53594U 22104G   24104.22474968  .00001003  00000-0  81079-4 0  9991,2 53594  53.2160 126.1565 0001440  87.9848 272.1309 15.08838609 89935,6917.885,95.438,540.746,538.753,0.0
53594.0,STARLINK-4681,PAYLOAD,2024-04-13 08:34:24,15.08840075,0.0001474,53.2163,125.562,88.5994,271.5167,9.1951e-05,1.176e-05,0.0,0 STARLINK-4681,1 53594U 22104G   24104.35722865  .00001176  00000-0  91951-4 0  9998,2 53594  53.2163 125.5620 0001474  88.5994 271.5167 15.08840075 91117,6917.88,95.438,540.765,538.725,0.0
53594.0,STARLINK-4681,PAYLOAD,2024-04-14 10:00:34,15.0884469,0.0001587,53.2172,120.8041,92.2922,267.8252,0.00010127,1.324e-05,0.0,0 STARLINK-4681,1 53594U 22104G   24105.41706724  .00001324  00000-0  10127-3 0  9992,2 53594  53.2172 120.8041 0001587  92.2922 267.8252 15.08844690 90119,6917.866,95.437,540.829,538.633,0.0
53594.0,STARLINK-4681,PAYLOAD,2024-04-15 05:05:12,15.08836924,0.0001768,53.2185,117.2336,85.4991,274.6203,4.5003e-05,4.28e-06,0.0,0 STARLINK-4681,1 53594U 22104G   24106.21195598  .00000428  00000-0  45003-4 0  9998,2 53594  53.2185 117.2336 0001768  85.4991 274.6203 15.08836924 90237,6917.89,95.438,540.978,538.532,0.0
53594.0,STARLINK-4681,PAYLOAD,2024-04-15 09:51:22,15.08837366,0.000173,53.2181,116.3412,87.129,272.99,6.9555e-05,8.19e-06,0.0,0 STARLINK-4681,1 53594U 22104G   24106.41067502  .00000819  00000-0  69555-4 0  9995,2 53594  53.2181 116.3412 0001730  87.1290 272.9900 15.08837366 91426,6917.888,95.438,540.95,538.557,0.0
53594.0,STARLINK-4681,PAYLOAD,2024-04-16 09:42:08,15.08847921,0.0001447,53.2163,111.8812,100.0797,260.0358,6.005e-05,6.68e-06,0.0,0 STARLINK-4681,1 53594U 22104G   24107.40426908  .00000668  00000-0  60050-4 0  9997,2 53594  53.2163 111.8812 0001447 100.0797 260.0358 15.08847921 90413,6917.856,95.437,540.722,538.72,0.0
53594.0,STARLINK-4681,PAYLOAD,2024-04-17 06:22:09,15.08848636,0.000154,53.2151,108.0172,88.4392,271.6776,0.00022665,3.322e-05,0.0,0 STARLINK-4681,1 53594U 22104G   24108.26538974  .00003322  00000-0  22665-3 0  9998,2 53594  53.2151 108.0172 0001540  88.4392 271.6776 15.08848636 91700,6917.854,95.437,540.784,538.654,0.0
53594.0,STARLINK-4681,PAYLOAD,2024-04-18 04:37:34,15.08833061,0.0001349,53.2153,103.8538,118.4388,241.674,6.8615e-07,-2.77e-06,0.0,0 STARLINK-4681,1 53594U 22104G   24109.19275925 -.00000277  00000-0  68615-6 0  9990,2 53594  53.2153 103.8538 0001349 118.4388 241.6740 15.08833061 90687,6917.902,95.438,540.7,538.833,0.0
53594.0,STARLINK-4681,PAYLOAD,2024-04-18 09:23:43,15.08833389,0.0001431,53.2155,102.9618,95.5376,264.578,-3.896e-05,-9.08e-06,0.0,0 STARLINK-4681,1 53594U 22104G   24109.39148134 -.00000908  00000-0 -38960-4 0  9993,2 53594  53.2155 102.9618 0001431  95.5376 264.5780 15.08833389 91875,6917.901,95.438,540.756,538.776,0.0
53594.0,STARLINK-4681,PAYLOAD,2024-04-19 04:28:21,15.08844777,0.0001337,53.2157,99.3937,96.5135,263.6009,0.00012842,1.757e-05,0.0,0 STARLINK-4681,1 53594U 22104G   24110.18635703  .00001757  00000-0  12842-3 0  9996,2 53594  53.2157  99.3937 0001337  96.5135 263.6009 15.08844777 90831,6917.866,95.437,540.656,538.806,0.0
53594.0,STARLINK-4681,PAYLOAD,2024-04-19 09:14:30,15.08852945,0.0001663,53.2155,98.4997,112.9043,247.2124,0.00014927,2.089e-05,0.0,0 STARLINK-4681,1 53594U 22104G   24110.38507188  .00002089  00000-0  14927-3 0  9998,2 53594  53.2155  98.4997 0001663 112.9043 247.2124 15.08852945 92023,6917.841,95.437,540.856,538.555,0.0
53594.0,STARLINK-4681,PAYLOAD,2024-04-20 04:19:07,15.088502,0.0001435,53.2162,94.9282,111.3413,248.7732,0.00026627,3.953e-05,0.0,0 STARLINK-4681,1 53594U 22104G   24111.17995324  .00003953  00000-0  26627-3 0  9990,2 53594  53.2162  94.9282 0001435 111.3413 248.7732 15.08850200 90986,6917.849,95.437,540.707,538.722,0.0
53594.0,STARLINK-4681,PAYLOAD,2024-04-20 09:05:16,15.08857663,0.0001677,53.2171,94.0357,111.4905,248.6266,0.00038295,5.815e-05,0.0,0 STARLINK-4681,1 53594U 22104G   24111.37866794  .00005815  00000-0  38295-3 0  9993,2 53594  53.2171  94.0357 0001677 111.4905 248.6266 15.08857663 92179,6917.826,95.436,540.852,538.531,0.0
53594.0,STARLINK-4681,PAYLOAD,2024-04-21 04:09:56,15.08815773,0.000169,53.2167,90.4685,109.8298,250.2876,-0.00036998,-6.168e-05,0.0,0 STARLINK-4681,1 53594U 22104G   24112.17357152 -.00006168  00000-0 -36998-3 0  9997,2 53594  53.2167  90.4685 0001690 109.8298 250.2876 15.08815773 91136,6917.954,95.439,540.989,538.65,0.0
53594.0,STARLINK-4681,PAYLOAD,2024-04-21 05:45:19,15.08814061,0.0001513,53.2168,90.1715,98.6376,261.4788,-0.00037005,-6.168e-05,0.0,0 STARLINK-4681,1 53594U 22104G   24112.23981368 -.00006168  00000-0 -37005-3 0  9996,2 53594  53.2168  90.1715 0001513  98.6376 261.4788 15.08814061 92309,6917.96,95.439,540.871,538.778,0.0
53594.0,STARLINK-4681,PAYLOAD,2024-04-22 04:00:43,15.08833274,0.0001926,53.217,86.0093,66.0826,294.0368,0.00017635,2.519e-05,0.0,0 STARLINK-4681,1 53594U 22104G   24113.16717462  .00002519  00000-0  17635-3 0  9992,2 53594  53.2170  86.0093 0001926  66.0826 294.0368 15.08833274 91281,6917.901,95.438,541.098,538.434,0.0
